KUIPER-00071            
1 64818U 25151C   25220.08335648 -.00002204  00000+0 -61098-4 0  9996
2 64818  51.8791 177.6787 0003544 205.1454 320.2662 15.30716242  3487
KUIPER-00072            
1 64819U 25151D   25220.04947776  .00019339  00000+0  56172-3 0  9995
2 64819  51.8763 177.8037 0004629 230.9482 129.1093 15.35487533  3497
KUIPER-00073            
1 64820U 25151E   25220.08335648  .00005696  00000+0  19862-3 0  9996
2 64820  51.8799 177.7161 0004692 221.6652 300.2710 15.31105965  4672
KUIPER-00074            
1 64821U 25151F   25220.04689991  .00015415  00000+0  44871-3 0  9994
2 64821  51.8768 177.7875 0004685 227.2766 132.7826 15.35590186  3493
KUIPER-00075            
1 64822U 25151G   25220.04586051  .00020867  00000+0  60027-3 0  9996
2 64822  51.8777 177.7888 0004712 217.9671 142.0984 15.35738517  3491
KUIPER-00076            
1 64823U 25151H   25220.04857578  .00017123  00000+0  49930-3 0  9993
2 64823  51.8766 177.7982 0004837 222.2739 137.7875 15.35451899  3492
KUIPER-00077            
1 64824U 25151J   25220.05092164  .00022723  00000+0  65897-3 0  9999
2 64824  51.8783 177.8211 0005377 234.6519 125.3964 15.35428030  3483
KUIPER-00078            
1 64825U 25151K   25220.05043587  .00019689  00000+0  57226-3 0  9999
2 64825  51.8774 177.8132 0005464 237.2213 122.8247 15.35450820  3492
